STARLINK-32195          
1 60440U 24144R   26068.70428610 -.00000582  00000+0 -75280-5 0  9992
2 60440  53.1590 216.9022 0000925  99.2130 260.8975 15.30191375 89314
NUSHSAT1                
1 63211U 25052B   26068.64700493  .00023034  00000+0  74857-3 0  9997
2 63211  97.4095 325.7239 0005501  84.7512 275.4357 15.31903202 54882
